[
    {
        "type": "Feature",
        "properties": {
          "@id": "node/1420496962",
          "addr:city": "Evanston",
          "addr:postcode": "60201",
          "addr:state": "IL",
          "addr:street": "Sherman Avenue",
          "amenity": "cafe",
          "name": "Starbucks",        },
        "geometry": {
          "type": "Point",
          "coordinates": [
            -87.6820389,
            42.0496962
          ]
        },
        "id": "node/1420496962"
      },
    {
        "type": "Feature",
        "properties": {
          "@id": "node/1420572204",
          "addr:city": "Evanston",
          "addr:postcode": "60201",
          "addr:state": "IL",
          "addr:street": "Davis Street",
          "amenity": "cafe",
          "name": "Cafe Coralie",
          "website": "https://www.bestfrenchpastries.com/"
        },
        "geometry": {
          "type": "Point",
          "coordinates": [
            -87.673396,
            42.0572204
          ]
        },
        "id": "node/1420572204"
      },
      {
        "type": "Feature",
        "properties": {
          "@id": "node/1420572204",
          "addr:city": "Evanston",
          "addr:postcode": "60201",
          "addr:state": "IL",
          "addr:street": "Sherman Avenue",
          "amenity": "cafe",
          "name": "The Other Brother",
          "website": "https://www.otherbrothercoffee.com/"
        },
        "geometry": {
          "type": "Point",
          "coordinates": [
            -87.6816811,
            42.0455414
          ]
        },
        "id": "node/1420572204"
      },
      {
        "type": "Feature",
        "properties": {
          "@id": "node/1420454106",
          "addr:city": "Evanston",
          "addr:postcode": "60201",
          "addr:state": "IL",
          "addr:street": "Grove Street",
          "amenity": "cafe",
          "name": "Cupitol Coffee and Eatery"
        },
        "geometry": {
          "type": "Point",
          "coordinates": [
            -87.6825521,
            42.0454106
          ]
        },
        "id": "node/1420454106"
      }
]
